[{"OBJECT_NAME":"IRIDIUM 160","OBJECT_ID":"2018-061A","EPOCH":"2026-03-09T22:03:46.499616","MEAN_MOTION":14.34217171,"ECCENTRICITY":0.00022327,"INCLINATION":86.3914,"RA_OF_ASC_NODE":98.3199,"ARG_OF_PERICENTER":91.5582,"MEAN_ANOMALY":268.587,"EPHEMERIS_TYPE":0,"CLASSIFICATION_TYPE":"U","NORAD_CAT_ID":43569,"ELEMENT_SET_NO":999,"REV_AT_EPOCH":39914,"BSTAR":-1.4041758e-5,"MEAN_MOTION_DOT":-2.0e-7,"MEAN_MOTION_DDOT":0},{"OBJECT_NAME":"FENGYUN 1C DEB","OBJECT_ID":"1999-025DXW","EPOCH":"2026-03-09T11:03:16.048224","MEAN_MOTION":14.23657316,"ECCENTRICITY":0.00532705,"INCLINATION":98.9328,"RA_OF_ASC_NODE":156.9615,"ARG_OF_PERICENTER":106.533,"MEAN_ANOMALY":254.1709,"EPHEMERIS_TYPE":0,"CLASSIFICATION_TYPE":"U","NORAD_CAT_ID":36652,"ELEMENT_SET_NO":999,"REV_AT_EPOCH":65558,"BSTAR":0.0019409561,"MEAN_MOTION_DOT":4.449e-5,"MEAN_MOTION_DDOT":0}]
